start=new Date('2022-10-01T00:00:00.000Z').valueOf();
sats=[{"RA_OF_ASC_NODE":"287.1530","COUNTRY_CODE":"US","MEAN_MOTION":"15.08847758","PERIAPSIS":"538.086","RCS_SIZE":"LARGE","GP_ID":"213908784","DECAY_DATE":null,"NORAD_CAT_ID":"52497","MEAN_ANOMALY":"317.9808","MEAN_ELEMENT_THEORY":"SGP4","LAUNCH_DATE":"2022-05-06","CLASSIFICATION_TYPE":"U","SEMIMAJOR_AXIS":"6917.857","INCLINATION":"53.2199","APOAPSIS":"541.357","BSTAR":"0.00000673360000","CENTER_NAME":"EARTH","SITE":"AFETR","FILE":"3587966","TIME_SYSTEM":"UTC","MEAN_MOTION_DOT":"-0.00000181","REF_FRAME":"TEME","ARG_OF_PERICENTER":"42.1366","REV_AT_EPOCH":"2279","MEAN_MOTION_DDOT":"0.0000000000000","ECCENTRICITY":"0.00023640","OBJECT_TYPE":"PAYLOAD","OBJECT_ID":"2022-049AY","PERIOD":"95.437","EPHEMERIS_TYPE":"0","OBJECT_NAME":"STARLINK-3884","TLE_LINE1":"1 52497U 22049AY  22273.77254445 -.00000181  00000-0  67336-5 0  9999","EPOCH":"2022-09-30T18:32:27.840480","ELEMENT_SET_NO":"999","TLE_LINE2":"2 52497  53.2199 287.1530 0002364  42.1366 317.9808 15.08847758 22790"},{"BSTAR":"0.00012326000000","CENTER_NAME":"EARTH","MEAN_MOTION_DOT":"0.00001675","TIME_SYSTEM":"UTC","SITE":"AFETR","FILE":"3587966","REV_AT_EPOCH":"2293","ARG_OF_PERICENTER":"48.8128","REF_FRAME":"TEME","MEAN_MOTION_DDOT":"0.0000000000000","ECCENTRICITY":"0.00018180","EPHEMERIS_TYPE":"0","OBJECT_TYPE":"PAYLOAD","PERIOD":"95.437","OBJECT_ID":"2022-049AZ","TLE_LINE1":"1 52498U 22049AZ  22273.81394650  .00001675  00000-0  12326-3 0  9993","OBJECT_NAME":"STARLINK-3925","ELEMENT_SET_NO":"999","TLE_LINE2":"2 52498  53.2159 276.9609 0001818  48.8128 311.3021 15.08853279 22938","EPOCH":"2022-09-30T19:32:04.977600","RA_OF_ASC_NODE":"276.9609","COUNTRY_CODE":"US","PERIAPSIS":"538.447","MEAN_MOTION":"15.08853279","GP_ID":"213908200","DECAY_DATE":null,"RCS_SIZE":"LARGE","NORAD_CAT_ID":"52498","MEAN_ELEMENT_THEORY":"SGP4","LAUNCH_DATE":"2022-05-06","CLASSIFICATION_TYPE":"U","MEAN_ANOMALY":"311.3021","APOAPSIS":"540.962","INCLINATION":"53.2159","SEMIMAJOR_AXIS":"6917.840"},{"EPOCH":"2022-09-30T18:27:11.434176","ELEMENT_SET_NO":"999","TLE_LINE2":"2 52499  53.2192 287.1708 0002531  37.1008 323.0159 15.08856740 22793","OBJECT_NAME":"STARLINK-3894","TLE_LINE1":"1 52499U 22049BA  22273.76888234 -.00002859  00000-0 -16152-3 0  9992","OBJECT_TYPE":"PAYLOAD","PERIOD":"95.436","OBJECT_ID":"2022-049BA","EPHEMERIS_TYPE":"0","MEAN_MOTION_DDOT":"0.0000000000000","ECCENTRICITY":"0.00025310","REF_FRAME":"TEME","ARG_OF_PERICENTER":"37.1008","REV_AT_EPOCH":"2279","SITE":"AFETR","FILE":"3587966","MEAN_MOTION_DOT":"-0.00002859","TIME_SYSTEM":"UTC","CENTER_NAME":"EARTH","BSTAR":"-0.00016152000000","SEMIMAJOR_AXIS":"6917.829","APOAPSIS":"541.445","INCLINATION":"53.2192","MEAN_ANOMALY":"323.0159","LAUNCH_DATE":"2022-05-06","MEAN_ELEMENT_THEORY":"SGP4","CLASSIFICATION_TYPE":"U","NORAD_CAT_ID":"52499","RCS_SIZE":"LARGE","GP_ID":"213908424","DECAY_DATE":null,"MEAN_MOTION":"15.08856740","PERIAPSIS":"537.943","COUNTRY_CODE":"US","RA_OF_ASC_NODE":"287.1708"},{"ECCENTRICITY":"0.00020450","MEAN_MOTION_DDOT":"0.0000000000000","PERIOD":"95.437","OBJECT_ID":"2022-049BB","OBJECT_TYPE":"PAYLOAD","EPHEMERIS_TYPE":"0","OBJECT_NAME":"STARLINK-3866","TLE_LINE1":"1 52500U 22049BB  22273.74403023  .00000654  00000-0  59177-4 0  9996","EPOCH":"2022-09-30T17:51:24.211872","TLE_LINE2":"2 52500  53.2151 277.2701 0002045  47.9974 312.1192 15.08845284 22927","ELEMENT_SET_NO":"999","BSTAR":"0.00005917700000","CENTER_NAME":"EARTH","FILE":"3587966","SITE":"AFETR","MEAN_MOTION_DOT":"0.00000654","TIME_SYSTEM":"UTC","ARG_OF_PERICENTER":"47.9974","REF_FRAME":"TEME","REV_AT_EPOCH":"2292","NORAD_CAT_ID":"52500","MEAN_ANOMALY":"312.1192","CLASSIFICATION_TYPE":"U","MEAN_ELEMENT_THEORY":"SGP4","LAUNCH_DATE":"2022-05-06","SEMIMAJOR_AXIS":"6917.864","INCLINATION":"53.2151","APOAPSIS":"541.144","RA_OF_ASC_NODE":"277.2701","COUNTRY_CODE":"US","MEAN_MOTION":"15.08845284","PERIAPSIS":"538.315","RCS_SIZE":"LARGE","DECAY_DATE":null,"GP_ID":"213908032"},{"GP_ID":"213908369","DECAY_DATE":null,"RCS_SIZE":"LARGE","PERIAPSIS":"538.352","MEAN_MOTION":"15.08836958","COUNTRY_CODE":"US","RA_OF_ASC_NODE":"287.1818","APOAPSIS":"541.157","INCLINATION":"53.2178","SEMIMAJOR_AXIS":"6917.890","LAUNCH_DATE":"2022-05-06","MEAN_ELEMENT_THEORY":"SGP4","CLASSIFICATION_TYPE":"U","MEAN_ANOMALY":"317.7881","NORAD_CAT_ID":"52501","REV_AT_EPOCH":"2279","REF_FRAME":"TEME","ARG_OF_PERICENTER":"42.3267","MEAN_MOTION_DOT":"0.00000298","TIME_SYSTEM":"UTC","SITE":"AFETR","FILE":"3587966","CENTER_NAME":"EARTH","BSTAR":"0.00003683000000","ELEMENT_SET_NO":"999","TLE_LINE2":"2 52501  53.2178 287.1818 0002027  42.3267 317.7881 15.08836958 22799","EPOCH":"2022-09-30T18:23:15.899136","TLE_LINE1":"1 52501U 22049BC  22273.76615624  .00000298  00000-0  36830-4 0  9996","OBJECT_NAME":"STARLINK-3907","EPHEMERIS_TYPE":"0","OBJECT_TYPE":"PAYLOAD","PERIOD":"95.438","OBJECT_ID":"2022-049BC","MEAN_MOTION_DDOT":"0.0000000000000","ECCENTRICITY":"0.00020270"},{"BSTAR":"0.00029374000000","CENTER_NAME":"EARTH","SITE":"AFETR","FILE":"3587966","TIME_SYSTEM":"UTC","MEAN_MOTION_DOT":"0.00004392","REF_FRAME":"TEME","ARG_OF_PERICENTER":"67.8159","REV_AT_EPOCH":"2292","MEAN_MOTION_DDOT":"0.0000000000000","ECCENTRICITY":"0.00015420","OBJECT_TYPE":"PAYLOAD","PERIOD":"95.437","OBJECT_ID":"2022-049BD","EPHEMERIS_TYPE":"0","TLE_LINE1":"1 52502U 22049BD  22273.73762257  .00004392  00000-0  29374-3 0  9992","OBJECT_NAME":"STARLINK-3912","EPOCH":"2022-09-30T17:42:10.590048","ELEMENT_SET_NO":"999","TLE_LINE2":"2 52502  53.2152 277.3013 0001542  67.8159 292.2997 15.08853941 22924","RA_OF_ASC_NODE":"277.3013","COUNTRY_CODE":"US","MEAN_MOTION":"15.08853941","PERIAPSIS":"538.636","RCS_SIZE":"LARGE","GP_ID":"213908616","DECAY_DATE":null,"NORAD_CAT_ID":"52502","MEAN_ANOMALY":"292.2997","LAUNCH_DATE":"2022-05-06","MEAN_ELEMENT_THEORY":"SGP4","CLASSIFICATION_TYPE":"U","SEMIMAJOR_AXIS":"6917.838","APOAPSIS":"540.770","INCLINATION":"53.2152"},{"PERIAPSIS":"538.139","MEAN_MOTION":"15.08844361","GP_ID":"213908009","DECAY_DATE":null,"RCS_SIZE":"LARGE","RA_OF_ASC_NODE":"277.2901","COUNTRY_CODE":"US","INCLINATION":"53.2149","APOAPSIS":"541.325","SEMIMAJOR_AXIS":"6917.867","NORAD_CAT_ID":"52503","LAUNCH_DATE":"2022-05-06","MEAN_ELEMENT_THEORY":"SGP4","CLASSIFICATION_TYPE":"U","MEAN_ANOMALY":"315.5522","TIME_SYSTEM":"UTC","MEAN_MOTION_DOT":"0.00001159","SITE":"AFETR","FILE":"3587966","REV_AT_EPOCH":"2292","ARG_OF_PERICENTER":"44.5655","REF_FRAME":"TEME","BSTAR":"0.00009089500000","CENTER_NAME":"EARTH","OBJECT_NAME":"STARLINK-3861","TLE_LINE1":"1 52503U 22049BE  22273.74035549  .00001159  00000-0  90895-4 0  9996","ELEMENT_SET_NO":"999","TLE_LINE2":"2 52503  53.2149 277.2901 0002303  44.5655 315.5522 15.08844361 22924","EPOCH":"2022-09-30T17:46:06.714336","MEAN_MOTION_DDOT":"0.0000000000000","ECCENTRICITY":"0.00023030","EPHEMERIS_TYPE":"0","OBJECT_TYPE":"PAYLOAD","PERIOD":"95.437","OBJECT_ID":"2022-049BE"},{"APOAPSIS":"540.940","INCLINATION":"53.2177","SEMIMAJOR_AXIS":"6917.794","CLASSIFICATION_TYPE":"U","MEAN_ELEMENT_THEORY":"SGP4","LAUNCH_DATE":"2022-05-13","MEAN_ANOMALY":"307.7741","NORAD_CAT_ID":"52533","DECAY_DATE":null,"GP_ID":"213908034","RCS_SIZE":"LARGE","PERIAPSIS":"538.378","MEAN_MOTION":"15.08868278","COUNTRY_CODE":"US","RA_OF_ASC_NODE":"7.6573","TLE_LINE2":"2 52533  53.2177   7.6573 0001852  52.3419 307.7741 15.08868278 21828","ELEMENT_SET_NO":"999","EPOCH":"2022-09-30T15:54:50.784192","TLE_LINE1":"1 52533U 22051A   22273.66308778  .00000378  00000-0  41827-4 0  9993","OBJECT_NAME":"STARLINK-3951","EPHEMERIS_TYPE":"0","PERIOD":"95.436","OBJECT_ID":"2022-051A","OBJECT_TYPE":"PAYLOAD","ECCENTRICITY":"0.00018520","MEAN_MOTION_DDOT":"0.0000000000000","REV_AT_EPOCH":"2182","REF_FRAME":"TEME","ARG_OF_PERICENTER":"52.3419","TIME_SYSTEM":"UTC","MEAN_MOTION_DOT":"0.00000378","FILE":"3587966","SITE":"AFWTR","CENTER_NAME":"EARTH","BSTAR":"0.00004182700000"},{"COUNTRY_CODE":"US","RA_OF_ASC_NODE":"8.2254","DECAY_DATE":null,"GP_ID":"213879444","RCS_SIZE":"LARGE","PERIAPSIS":"538.470","MEAN_MOTION":"15.08834010","CLASSIFICATION_TYPE":"U","LAUNCH_DATE":"2022-05-13","MEAN_ELEMENT_THEORY":"SGP4","MEAN_ANOMALY":"322.7816","NORAD_CAT_ID":"52534","INCLINATION":"53.2173","APOAPSIS":"541.057","SEMIMAJOR_AXIS":"6917.899","CENTER_NAME":"EARTH","BSTAR":"0.00013059000000","REV_AT_EPOCH":"2187","ARG_OF_PERICENTER":"37.3306","REF_FRAME":"TEME","TIME_SYSTEM":"UTC","MEAN_MOTION_DOT":"0.00001791","FILE":"3587764","SITE":"AFWTR","EPHEMERIS_TYPE":"0","OBJECT_ID":"2022-051B","PERIOD":"95.438","OBJECT_TYPE":"PAYLOAD","ECCENTRICITY":"0.00018700","MEAN_MOTION_DDOT":"0.0000000000000","ELEMENT_SET_NO":"999","TLE_LINE2":"2 52534  53.2173   8.2254 0001870  37.3306 322.7816 15.08834010 21878","EPOCH":"2022-09-30T12:53:19.804128","TLE_LINE1":"1 52534U 22051B   22273.53703477  .00001791  00000-0  13059-3 0  9990","OBJECT_NAME":"STARLINK-3952"},{"OBJECT_NAME":"STARLINK-3958","TLE_LINE1":"1 52535U 22051C   22273.66583811  .00000290  00000-0  36298-4 0  9997","EPOCH":"2022-09-30T15:58:48.412704","ELEMENT_SET_NO":"999","TLE_LINE2":"2 52535  53.2191   7.6418 0001827  36.7239 323.3878 15.08843871 21829","MEAN_MOTION_DDOT":"0.0000000000000","ECCENTRICITY":"0.00018270","OBJECT_TYPE":"PAYLOAD","PERIOD":"95.437","OBJECT_ID":"2022-051C","EPHEMERIS_TYPE":"0","SITE":"AFWTR","FILE":"3587966","MEAN_MOTION_DOT":"0.00000290","TIME_SYSTEM":"UTC","ARG_OF_PERICENTER":"36.7239","REF_FRAME":"TEME","REV_AT_EPOCH":"2182","BSTAR":"0.00003629800000","CENTER_NAME":"EARTH","SEMIMAJOR_AXIS":"6917.869","INCLINATION":"53.2191","APOAPSIS":"540.997","NORAD_CAT_ID":"52535","MEAN_ANOMALY":"323.3878","LAUNCH_DATE":"2022-05-13","MEAN_ELEMENT_THEORY":"SGP4","CLASSIFICATION_TYPE":"U","MEAN_MOTION":"15.08843871","PERIAPSIS":"538.470","RCS_SIZE":"LARGE","GP_ID":"213908618","DECAY_DATE":null,"RA_OF_ASC_NODE":"7.6418","COUNTRY_CODE":"US"}];
